{"type":"FeatureCollection","name":"CEEAC member states","source":"Natural Earth 1:50m Admin 0 Countries (public domain)","features":[{"type":"Feature","properties":{"code":"ST","name":"Sao Tomé-et-Principe"},"geometry":{"type":"MultiPolygon","coordinates":[[[[7.423828,1.567725],[7.386621,1.541553],[7.342383,1.563574],[7.330664,1.603369],[7.387598,1.680176],[7.414453,1.699121],[7.437012,1.683057],[7.450391,1.661963],[7.452344,1.631104],[7.423828,1.567725]]],[[[6.659961,0.120654],[6.556836,0.047363],[6.519727,0.066309],[6.496973,0.117383],[6.468164,0.227344],[6.477539,0.280127],[6.524316,0.340283],[6.625879,0.400244],[6.686914,0.404395],[6.749805,0.325635],[6.75,0.243457],[6.659961,0.120654]]]]}},{"type":"Feature","properties":{"code":"RW","name":"Rwanda"},"geometry":{"type":"Polygon","coordinates":[[[29.576953,-1.387891],[29.609668,-1.387109],[29.825391,-1.335547],[29.846875,-1.35166],[29.881641,-1.451758],[29.9,-1.466309],[29.930078,-1.469922],[29.990527,-1.446973],[30.101562,-1.368652],[30.15,-1.321094],[30.207031,-1.254199],[30.279883,-1.178809],[30.320508,-1.113086],[30.360254,-1.074609],[30.412305,-1.063086],[30.469922,-1.066016],[30.509961,-1.067285],[30.477051,-1.083008],[30.470215,-1.131152],[30.508105,-1.208203],[30.631934,-1.36748],[30.710742,-1.396777],[30.762207,-1.458691],[30.812598,-1.563086],[30.827539,-1.693652],[30.806738,-1.850684],[30.819141,-1.96748],[30.864648,-2.044043],[30.876563,-2.143359],[30.85498,-2.26543],[30.828711,-2.338477],[30.797656,-2.362695],[30.7625,-2.37168],[30.714844,-2.363477],[30.656641,-2.373828],[30.593359,-2.396777],[30.553613,-2.400098],[30.528906,-2.395605],[30.482227,-2.376074],[30.408496,-2.312988],[30.270996,-2.347852],[30.233789,-2.34707],[30.183301,-2.377051],[30.142285,-2.413965],[30.117285,-2.416602],[30.091895,-2.411523],[29.973438,-2.337109],[29.930176,-2.339551],[29.912402,-2.548633],[29.892578,-2.664648],[29.868164,-2.716406],[29.783398,-2.766406],[29.698047,-2.794727],[29.651367,-2.792773],[29.463672,-2.808398],[29.390234,-2.808594],[29.349805,-2.791504],[29.29707,-2.673047],[29.197559,-2.620313],[29.102051,-2.595703],[29.063184,-2.602539],[29.028613,-2.664551],[29.014355,-2.720215],[28.921777,-2.682031],[28.893945,-2.635059],[28.891406,-2.555566],[28.857617,-2.44668],[28.876367,-2.400293],[28.912695,-2.370313],[28.989551,-2.312793],[29.106445,-2.233203],[29.131543,-2.195117],[29.148047,-2.131836],[29.140625,-1.98457],[29.129395,-1.860254],[29.143262,-1.816016],[29.196582,-1.719922],[29.268164,-1.621582],[29.35166,-1.517578],[29.401953,-1.507422],[29.467969,-1.468066],[29.537793,-1.409766],[29.576953,-1.387891]]]}},{"type":"Feature","properties":{"code":"GA","name":"Gabon"},"geometry":{"type":"Polygon","coordinates":[[[13.293555,2.161572],[13.288672,2.091699],[13.209473,1.92041],[13.172168,1.788574],[13.162695,1.648096],[13.18457,1.535059],[13.222754,1.45459],[13.247363,1.366699],[13.22832,1.30542],[13.190137,1.279248],[13.216309,1.248437],[13.274121,1.241016],[13.372363,1.267773],[13.52334,1.3146],[13.721191,1.382275],[13.851367,1.41875],[14.066211,1.395898],[14.180859,1.370215],[14.239746,1.322559],[14.303027,1.12085],[14.334473,1.090234],[14.386426,1.004443],[14.429883,0.901465],[14.43916,0.849121],[14.434473,0.811475],[14.390625,0.755713],[14.341504,0.673828],[14.324219,0.624219],[14.283105,0.587451],[14.230957,0.551123],[14.0875,0.536572],[14.065527,0.51499],[14.025293,0.427734],[13.949609,0.353809],[13.915137,0.283984],[13.88457,0.19082],[13.890625,0.075293],[13.875488,-0.09082],[13.860059,-0.20332],[13.898047,-0.242578],[14.069434,-0.270117],[14.102832,-0.292383],[14.14834,-0.361914],[14.206738,-0.427344],[14.36377,-0.468555],[14.424707,-0.518652],[14.474121,-0.573438],[14.480566,-0.618359],[14.444922,-0.798828],[14.410645,-0.97207],[14.424023,-1.103906],[14.436914,-1.229785],[14.455566,-1.413184],[14.447266,-1.525098],[14.40293,-1.593359],[14.40293,-1.646973],[14.423242,-1.711523],[14.383984,-1.890039],[14.358594,-1.920215],[14.288379,-1.953516],[14.251465,-2.001465],[14.239648,-2.076758],[14.201758,-2.179883],[14.162891,-2.217578],[14.162891,-2.265527],[14.200391,-2.300586],[14.199805,-2.354199],[14.129785,-2.417969],[14.087402,-2.466895],[13.993848,-2.490625],[13.886914,-2.46543],[13.861816,-2.429883],[13.887695,-2.374512],[13.878516,-2.330176],[13.841602,-2.283691],[13.784375,-2.16377],[13.733789,-2.138477],[13.705566,-2.1875],[13.618555,-2.278613],[13.464941,-2.39541],[13.357324,-2.404785],[13.158594,-2.369141],[12.991992,-2.313379],[12.913574,-2.17627],[12.864453,-2.063281],[12.793555,-1.931836],[12.713672,-1.869434],[12.628418,-1.82959],[12.59043,-1.826855],[12.468652,-1.9],[12.432129,-1.928906],[12.432422,-1.990332],[12.44375,-2.047559],[12.462598,-2.075293],[12.478516,-2.112012],[12.475684,-2.169238],[12.453809,-2.245605],[12.446387,-2.32998],[12.064453,-2.412598],[11.998242,-2.382812],[11.950293,-2.344824],[11.892383,-2.351465],[11.726758,-2.394727],[11.665918,-2.364551],[11.605469,-2.342578],[11.577734,-2.360938],[11.575195,-2.39707],[11.603418,-2.59541],[11.594531,-2.670996],[11.557129,-2.769629],[11.537793,-2.836719],[11.639063,-2.855371],[11.675684,-2.886621],[11.711328,-2.936523],[11.760156,-2.983105],[11.763477,-3.01123],[11.708008,-3.063086],[11.689063,-3.126953],[11.71543,-3.176953],[11.784375,-3.229102],[11.885059,-3.283203],[11.93418,-3.318555],[11.929297,-3.350977],[11.882812,-3.420215],[11.864746,-3.478613],[11.83291,-3.531445],[11.839453,-3.580078],[11.884766,-3.625391],[11.879883,-3.665918],[11.849121,-3.69668],[11.786426,-3.690234],[11.733398,-3.694531],[11.685742,-3.682031],[11.536816,-3.525],[11.504297,-3.520313],[11.288281,-3.641113],[11.234473,-3.69082],[11.190039,-3.762012],[11.130176,-3.916309],[11.032031,-3.826465],[10.947266,-3.662109],[10.848535,-3.561328],[10.640723,-3.398047],[10.585449,-3.278027],[10.347656,-3.013086],[10.006152,-2.74834],[9.759473,-2.518555],[9.72207,-2.467578],[9.763672,-2.473828],[10.001953,-2.588379],[10.034473,-2.575586],[10.062012,-2.549902],[9.959082,-2.489844],[9.86084,-2.442578],[9.768652,-2.413086],[9.676367,-2.415625],[9.624609,-2.36709],[9.591016,-2.293164],[9.574023,-2.22998],[9.533203,-2.163867],[9.402246,-2.027637],[9.370508,-1.975],[9.298926,-1.903027],[9.34248,-1.893652],[9.482813,-1.962305],[9.495313,-1.934961],[9.483203,-1.894629],[9.342188,-1.829395],[9.265625,-1.825098],[9.247949,-1.779297],[9.258398,-1.72627],[9.15752,-1.527734],[9.052832,-1.379102],[9.036328,-1.308887],[9.318848,-1.632031],[9.356641,-1.637598],[9.406348,-1.63457],[9.52334,-1.59834],[9.501074,-1.555176],[9.44834,-1.508887],[9.397168,-1.530176],[9.330664,-1.53457],[9.295801,-1.515234],[9.280176,-1.481934],[9.34668,-1.325],[9.317871,-1.33291],[9.29668,-1.360938],[9.260156,-1.374219],[9.203809,-1.382422],[9.064648,-1.29834],[8.941895,-1.071484],[8.909375,-1.025],[8.876563,-0.946094],[8.844238,-0.913574],[8.703125,-0.591016],[8.757227,-0.614941],[8.821387,-0.708398],[8.946387,-0.68877],[8.995215,-0.634668],[9.037891,-0.636719],[9.081543,-0.624316],[9.136523,-0.57334],[9.29668,-0.35127],[9.339063,-0.058252],[9.325293,0.11582],[9.301855,0.288525],[9.354883,0.343604],[9.375781,0.307227],[9.386133,0.245898],[9.411133,0.200439],[9.468164,0.159766],[9.574316,0.148926],[9.738379,0.084961],[9.796777,0.044238],[9.812695,0.125586],[10.001465,0.194971],[9.944434,0.219873],[9.77666,0.19248],[9.546484,0.295947],[9.470117,0.361914],[9.398828,0.486719],[9.324805,0.5521],[9.32998,0.61084],[9.495313,0.664844],[9.538965,0.658691],[9.556641,0.594189],[9.601074,0.567725],[9.617969,0.576514],[9.625293,0.631641],[9.625879,0.779443],[9.575391,0.991309],[9.59082,1.031982],[9.636133,1.04668],[9.676465,1.074707],[9.70459,1.07998],[9.760547,1.074707],[9.788672,1.025684],[9.803906,0.99873],[9.860352,0.98623],[9.906738,0.960107],[9.94668,0.967139],[9.979785,0.997705],[10.028516,1.004004],[10.178906,1.003564],[10.31543,1.003076],[10.587207,1.002148],[10.858887,1.00127],[11.130664,1.000391],[11.335352,0.999707],[11.334668,1.120752],[11.333594,1.307617],[11.332324,1.528369],[11.331152,1.740186],[11.330078,1.935889],[11.328711,2.167432],[11.339941,2.233838],[11.35332,2.261426],[11.348438,2.299707],[11.558984,2.302197],[11.939746,2.285156],[12.106152,2.2875],[12.153418,2.284375],[12.361328,2.295996],[12.529785,2.281348],[12.601367,2.265039],[12.665723,2.256787],[12.86748,2.246777],[13.130859,2.259424],[13.220313,2.256445],[13.269922,2.224219],[13.293555,2.161572]]]}},{"type":"Feature","properties":{"code":"GQ","name":"Guinée équatoriale"},"geometry":{"type":"MultiPolygon","coordinates":[[[[8.735742,3.758301],[8.760449,3.754346],[8.910059,3.758203],[8.950684,3.705322],[8.946094,3.627539],[8.792188,3.400391],[8.763477,3.304639],[8.704004,3.223633],[8.652344,3.21709],[8.474902,3.264648],[8.444922,3.293506],[8.434277,3.332422],[8.451758,3.4229],[8.464648,3.450586],[8.549805,3.467627],[8.577246,3.482373],[8.622754,3.57998],[8.637695,3.668848],[8.675879,3.735937],[8.735742,3.758301]]],[[[11.328711,2.167432],[11.330078,1.935889],[11.331152,1.740186],[11.332324,1.528369],[11.333594,1.307617],[11.334668,1.120752],[11.335352,0.999707],[11.130664,1.000391],[10.858887,1.00127],[10.587207,1.002148],[10.31543,1.003076],[10.178906,1.003564],[10.028516,1.004004],[9.979785,0.997705],[9.94668,0.967139],[9.906738,0.960107],[9.860352,0.98623],[9.803906,0.99873],[9.788672,1.025684],[9.760547,1.074707],[9.70459,1.07998],[9.676465,1.074707],[9.636133,1.04668],[9.59082,1.031982],[9.599414,1.054443],[9.509863,1.114795],[9.445312,1.120654],[9.385938,1.139258],[9.434082,1.296387],[9.494238,1.435303],[9.584277,1.540234],[9.632129,1.565527],[9.647656,1.617578],[9.718848,1.788672],[9.807031,1.92749],[9.779688,2.068213],[9.800781,2.304443],[9.826172,2.297803],[9.830371,2.275488],[9.836914,2.242383],[9.870117,2.213281],[9.979883,2.167773],[10.307031,2.167725],[10.502246,2.167627],[10.790918,2.167578],[11.096582,2.16748],[11.328711,2.167432]]]]}},{"type":"Feature","properties":{"code":"CD","name":"République démocratique du Congo"},"geometry":{"type":"Polygon","coordinates":[[[30.751172,-8.193652],[30.57793,-8.22002],[30.327539,-8.258203],[30.051367,-8.300293],[29.766211,-8.34375],[29.483789,-8.386914],[29.215625,-8.427832],[28.972266,-8.464941],[28.898145,-8.485449],[28.934473,-8.590234],[28.917773,-8.700586],[28.869531,-8.78584],[28.793555,-8.891016],[28.758789,-8.932617],[28.68125,-9.014648],[28.616504,-9.072266],[28.484277,-9.169434],[28.400684,-9.224805],[28.400195,-9.275],[28.540527,-9.510059],[28.604199,-9.678809],[28.630078,-9.83125],[28.628906,-9.91875],[28.623535,-10.098828],[28.617188,-10.312988],[28.607422,-10.397363],[28.645508,-10.550195],[28.638867,-10.669238],[28.544238,-10.802344],[28.517969,-10.933203],[28.470313,-11.10957],[28.404199,-11.354395],[28.357227,-11.483008],[28.383398,-11.566699],[28.407031,-11.622852],[28.431836,-11.69834],[28.48252,-11.812109],[28.541602,-11.879199],[28.574609,-11.908105],[28.769434,-12.05127],[28.85,-12.120508],[28.973438,-12.257812],[29.064355,-12.348828],[29.191211,-12.370215],[29.34375,-12.404785],[29.427539,-12.43125],[29.485547,-12.418457],[29.504883,-12.386133],[29.502246,-12.317578],[29.491992,-12.266895],[29.508203,-12.228223],[29.559766,-12.202441],[29.691992,-12.19834],[29.749609,-12.164062],[29.795117,-12.155469],[29.795313,-12.306152],[29.795508,-12.450586],[29.795605,-12.625879],[29.795801,-12.827051],[29.796094,-12.99209],[29.796289,-13.16748],[29.796484,-13.369727],[29.795313,-13.392773],[29.775195,-13.438086],[29.722656,-13.453809],[29.651758,-13.414355],[29.647656,-13.372949],[29.630273,-13.298535],[29.597168,-13.260547],[29.554199,-13.248926],[29.481445,-13.267969],[29.381836,-13.322852],[29.253711,-13.370801],[29.201855,-13.39834],[29.111621,-13.395117],[29.014258,-13.368848],[28.942285,-13.307129],[28.92168,-13.214648],[28.858789,-13.119434],[28.773145,-12.981934],[28.730078,-12.925488],[28.672949,-12.861328],[28.61543,-12.854102],[28.550879,-12.836133],[28.51123,-12.742188],[28.474414,-12.62334],[28.451465,-12.577441],[28.412891,-12.518066],[28.357715,-12.482031],[28.237305,-12.43457],[28.068848,-12.368164],[27.857422,-12.284863],[27.756836,-12.280859],[27.644336,-12.266797],[27.573828,-12.227051],[27.533398,-12.195312],[27.487012,-12.079688],[27.423633,-11.944531],[27.238086,-11.783496],[27.196387,-11.605078],[27.15918,-11.579199],[27.09541,-11.59375],[27.046094,-11.615918],[27.02666,-11.66377],[26.976855,-11.824609],[26.949609,-11.898828],[26.930859,-11.919336],[26.89043,-11.943555],[26.824023,-11.965234],[26.729688,-11.975977],[26.596387,-11.97207],[26.429688,-11.947852],[26.339648,-11.929883],[26.096387,-11.903223],[26.025977,-11.890137],[25.926563,-11.855273],[25.854883,-11.820117],[25.618848,-11.744141],[25.511914,-11.753418],[25.459961,-11.699805],[25.413379,-11.673535],[25.349414,-11.623047],[25.320703,-11.553516],[25.282617,-11.40498],[25.291797,-11.325488],[25.319336,-11.236914],[25.28877,-11.212402],[25.245996,-11.212402],[25.184863,-11.242969],[25.075977,-11.260059],[24.876855,-11.299121],[24.806348,-11.321191],[24.728125,-11.337793],[24.668262,-11.35293],[24.518555,-11.438477],[24.466602,-11.447656],[24.37793,-11.41709],[24.335156,-11.371289],[24.37793,-11.319336],[24.396289,-11.255176],[24.365723,-11.129883],[24.319922,-11.071777],[24.187207,-11.02998],[24.136523,-11.025977],[24.115137,-10.955664],[24.078418,-10.891504],[24.002734,-10.879102],[23.966504,-10.871777],[23.928711,-10.891504],[23.907324,-10.943457],[23.901172,-10.983203],[23.833887,-11.013672],[23.696387,-11.007617],[23.559961,-10.978613],[23.463965,-10.969336],[23.400195,-10.976465],[23.156738,-11.074805],[23.07627,-11.087891],[22.814746,-11.080273],[22.666504,-11.059766],[22.561035,-11.055859],[22.486133,-11.086719],[22.392969,-11.159473],[22.314941,-11.198633],[22.278809,-11.194141],[22.256641,-11.163672],[22.226172,-11.121973],[22.216699,-11.012695],[22.17793,-10.892285],[22.203516,-10.829492],[22.280469,-10.783984],[22.307031,-10.691309],[22.283203,-10.551563],[22.281641,-10.45332],[22.302441,-10.39668],[22.274512,-10.259082],[22.197754,-10.040625],[22.08916,-9.862793],[21.948633,-9.725586],[21.856641,-9.594238],[21.813184,-9.46875],[21.829492,-9.168457],[21.871875,-8.903516],[21.905371,-8.693359],[21.895898,-8.341113],[21.800879,-8.111914],[21.780078,-7.86543],[21.833594,-7.60166],[21.841602,-7.420996],[21.806055,-7.328613],[21.781641,-7.314648],[21.751074,-7.305469],[21.51084,-7.29668],[21.190332,-7.284961],[20.910938,-7.281445],[20.607813,-7.277734],[20.558398,-7.244434],[20.53584,-7.182813],[20.536914,-7.121777],[20.59873,-6.935156],[20.590039,-6.919922],[20.482227,-6.91582],[20.190039,-6.946289],[19.997461,-6.976465],[19.875195,-6.986328],[19.660352,-7.037109],[19.527637,-7.144434],[19.483789,-7.279492],[19.487402,-7.390723],[19.479883,-7.472168],[19.419336,-7.557324],[19.37168,-7.655078],[19.369922,-7.706543],[19.34082,-7.966602],[19.142676,-8.001465],[18.944434,-8.001465],[18.89834,-7.998145],[18.653418,-7.936035],[18.562695,-7.935938],[18.484668,-7.968555],[18.334863,-8.000293],[18.191504,-8.023828],[18.047168,-8.100781],[18.008789,-8.107617],[17.913086,-8.067676],[17.778809,-8.071387],[17.643359,-8.090723],[17.57959,-8.099023],[17.536035,-8.075879],[17.411328,-7.881934],[17.24502,-7.62334],[17.155078,-7.461328],[17.121582,-7.419043],[17.06377,-7.363086],[16.984766,-7.257422],[16.952051,-7.157031],[16.96582,-7.062109],[16.919434,-6.933984],[16.813086,-6.772559],[16.742969,-6.618457],[16.709375,-6.47168],[16.700977,-6.345996],[16.717773,-6.241406],[16.697266,-6.164258],[16.639551,-6.114551],[16.608008,-6.051563],[16.585156,-6.025293],[16.537109,-5.96582],[16.431445,-5.900195],[16.315234,-5.865625],[16.060156,-5.864941],[15.726953,-5.863867],[15.425,-5.868848],[15.089355,-5.874512],[14.749414,-5.880078],[14.65791,-5.888867],[14.398633,-5.892676],[14.19082,-5.875977],[14.11377,-5.865137],[13.978516,-5.857227],[13.764551,-5.855176],[13.649023,-5.861719],[13.371484,-5.861816],[13.346484,-5.863379],[13.302637,-5.881836],[13.184375,-5.85625],[13.068164,-5.864844],[13.00332,-5.836133],[12.86084,-5.854102],[12.791602,-5.877734],[12.680664,-5.96084],[12.514551,-6.004199],[12.45293,-6.000488],[12.411719,-5.986328],[12.315039,-5.895313],[12.24043,-5.807324],[12.213672,-5.758691],[12.255273,-5.746484],[12.386035,-5.727734],[12.48457,-5.71875],[12.503711,-5.695801],[12.518945,-5.424609],[12.522363,-5.148926],[12.487402,-5.112695],[12.453223,-5.090625],[12.451465,-5.071484],[12.502734,-5.036914],[12.573535,-4.996582],[12.596191,-4.978418],[12.674805,-4.905371],[12.829688,-4.736621],[12.947461,-4.695312],[13.057324,-4.651074],[13.072754,-4.634766],[13.087402,-4.601953],[13.136621,-4.604297],[13.152344,-4.620313],[13.176465,-4.655859],[13.219629,-4.705859],[13.297266,-4.765234],[13.375781,-4.829395],[13.414941,-4.837402],[13.478418,-4.80498],[13.55166,-4.756738],[13.65957,-4.721484],[13.685352,-4.688672],[13.699414,-4.618359],[13.707617,-4.543262],[13.71709,-4.454492],[13.739063,-4.44248],[13.778027,-4.433887],[13.849512,-4.458887],[13.882324,-4.484668],[13.940918,-4.484668],[13.978418,-4.46123],[14.046875,-4.41748],[14.133887,-4.4],[14.227051,-4.358105],[14.316211,-4.304102],[14.358301,-4.299414],[14.40293,-4.369727],[14.442773,-4.419043],[14.449805,-4.449512],[14.409961,-4.508105],[14.36543,-4.585547],[14.40293,-4.681641],[14.411914,-4.775],[14.410742,-4.83125],[14.440918,-4.854102],[14.461621,-4.864941],[14.493945,-4.85166],[14.557617,-4.855762],[14.633984,-4.885059],[14.70791,-4.881738],[14.779297,-4.845703],[14.912109,-4.705566],[15.10625,-4.461035],[15.267188,-4.307617],[15.394629,-4.244922],[15.480957,-4.171777],[15.525977,-4.087988],[15.600098,-4.030957],[15.75459,-3.985547],[15.872461,-3.934277],[15.990039,-3.766211],[16.146777,-3.46416],[16.190625,-3.194434],[16.217383,-3.030273],[16.201855,-2.464746],[16.191602,-2.279102],[16.215332,-2.177832],[16.273926,-2.108203],[16.433594,-1.96084],[16.540723,-1.840137],[16.622461,-1.698926],[16.780078,-1.376367],[16.849121,-1.272461],[16.879883,-1.225879],[16.974707,-1.139941],[17.107617,-1.064453],[17.278809,-0.999609],[17.542871,-0.775],[17.752832,-0.549023],[17.724121,-0.277539],[17.773145,-0.052393],[17.887695,0.234131],[17.925195,0.537305],[17.885742,0.856885],[17.902441,1.118066],[18.011719,1.422119],[18.057813,1.534863],[18.072852,1.719385],[18.072168,2.013281],[18.211621,2.414941],[18.343457,2.65542],[18.490918,2.924414],[18.54707,3.087012],[18.622168,3.304053],[18.610352,3.478418],[18.59668,3.678711],[18.633691,3.954297],[18.619922,4.116602],[18.56748,4.257568],[18.594141,4.34624],[18.699902,4.382617],[18.831738,4.523438],[19.068555,4.891406],[19.323438,5.070752],[19.500977,5.12749],[19.686035,5.121387],[19.806543,5.089307],[19.8625,5.031299],[20.002344,4.944727],[20.226367,4.829639],[20.393555,4.686182],[20.486523,4.541553],[20.558105,4.462695],[20.647461,4.435645],[20.792969,4.447314],[20.955762,4.413135],[21.125586,4.332178],[21.229785,4.302197],[21.268359,4.323096],[21.350195,4.311377],[21.537598,4.244824],[21.687012,4.281396],[21.908203,4.253906],[22.422168,4.134961],[22.449707,4.155127],[22.461816,4.159766],[22.505664,4.207666],[22.617188,4.445557],[22.711719,4.591748],[22.755762,4.64668],[22.864551,4.723877],[22.992871,4.743848],[23.115918,4.736914],[23.218848,4.702979],[23.312891,4.663525],[23.417188,4.663135],[23.523633,4.70127],[23.681836,4.770801],[23.848438,4.816357],[23.991699,4.86626],[24.227734,4.953857],[24.319824,4.994141],[24.437109,5.009961],[24.765527,4.930078],[24.978418,4.982959],[25.065234,4.967432],[25.249316,5.024561],[25.283105,5.062695],[25.400195,5.255908],[25.525098,5.312109],[25.713867,5.283691],[25.819922,5.253711],[26.173535,5.171143],[26.632617,5.085205],[26.767578,5.071924],[26.82207,5.062402],[26.870117,5.075684],[27.020605,5.184375],[27.071875,5.199756],[27.114941,5.197852],[27.40332,5.10918],[27.439258,5.039209],[27.491016,4.967578],[27.66416,4.845996],[27.719238,4.77832],[27.761426,4.703223],[27.788086,4.644678],[27.841602,4.597754],[27.916602,4.56792],[27.980664,4.53208],[28.019824,4.479395],[28.078613,4.424805],[28.19209,4.350244],[28.247266,4.348535],[28.311035,4.338037],[28.367188,4.318652],[28.427539,4.32417],[28.524805,4.372852],[28.639551,4.454492],[28.727051,4.50498],[28.939355,4.487061],[29.057422,4.445947],[29.151465,4.388184],[29.224902,4.391895],[29.384863,4.498389],[29.469629,4.611816],[29.552051,4.636035],[29.676855,4.586914],[29.779883,4.480957],[29.870215,4.327148],[29.933984,4.268506],[30.021387,4.177637],[30.194922,3.981934],[30.420703,3.883887],[30.508301,3.835693],[30.536914,3.787207],[30.553516,3.722949],[30.559375,3.652783],[30.586719,3.624219],[30.647656,3.634131],[30.699902,3.644092],[30.757227,3.624219],[30.796973,3.573145],[30.816895,3.53335],[30.838574,3.490723],[30.895313,3.463672],[30.906445,3.408936],[30.867578,3.342139],[30.827832,3.282617],[30.779297,3.163379],[30.754004,3.041797],[30.786523,3.001367],[30.821387,2.967578],[30.839941,2.933496],[30.850781,2.893652],[30.84668,2.847021],[30.769531,2.677979],[30.729883,2.530273],[30.728613,2.455371],[30.830078,2.400439],[30.961914,2.403271],[31.003613,2.369385],[31.045313,2.315527],[31.082129,2.288086],[31.137598,2.288867],[31.176367,2.270068],[31.191406,2.232275],[31.236328,2.191357],[31.274023,2.146289],[31.256055,2.088477],[31.252734,2.04458],[31.158789,1.922021],[30.942578,1.682812],[30.478125,1.239062],[30.477832,1.238818],[30.321094,1.185303],[30.240137,1.102783],[30.18291,0.973486],[30.047363,0.863525],[29.942871,0.819238],[29.931641,0.792871],[29.923828,0.673926],[29.934473,0.499023],[29.885449,0.418945],[29.814648,0.263623],[29.777832,0.166357],[29.749707,0.147217],[29.717676,0.09834],[29.697852,-0.060205],[29.684375,-0.113574],[29.633203,-0.441699],[29.647852,-0.535254],[29.608203,-0.691309],[29.606445,-0.783105],[29.590039,-0.887109],[29.561914,-0.977344],[29.564063,-1.121387],[29.57998,-1.356738],[29.576953,-1.387891],[29.537793,-1.409766],[29.467969,-1.468066],[29.401953,-1.507422],[29.35166,-1.517578],[29.268164,-1.621582],[29.196582,-1.719922],[29.143262,-1.816016],[29.129395,-1.860254],[29.140625,-1.98457],[29.148047,-2.131836],[29.131543,-2.195117],[29.106445,-2.233203],[28.989551,-2.312793],[28.912695,-2.370313],[28.876367,-2.400293],[28.857617,-2.44668],[28.891406,-2.555566],[28.893945,-2.635059],[28.921777,-2.682031],[29.014355,-2.720215],[29.01416,-2.758301],[29.016602,-2.799609],[29.064746,-2.850781],[29.153223,-2.955273],[29.224414,-3.053516],[29.226074,-3.138672],[29.212305,-3.28125],[29.210059,-3.363281],[29.217188,-3.475684],[29.216797,-3.684961],[29.211816,-3.833789],[29.223242,-3.91084],[29.331348,-4.09541],[29.379199,-4.299707],[29.403223,-4.449316],[29.404199,-4.49668],[29.367578,-4.668848],[29.325684,-4.835645],[29.323438,-4.898828],[29.342773,-4.983105],[29.420117,-5.176172],[29.476465,-5.316602],[29.503711,-5.400977],[29.542383,-5.499805],[29.594141,-5.650781],[29.607031,-5.722656],[29.596387,-5.775977],[29.49082,-5.96543],[29.480078,-6.025],[29.50625,-6.17207],[29.54082,-6.313867],[29.590625,-6.394434],[29.709668,-6.616895],[29.798145,-6.691895],[29.961816,-6.803125],[30.10625,-6.915039],[30.161816,-6.973047],[30.212695,-7.037891],[30.313184,-7.203711],[30.374512,-7.338672],[30.406738,-7.460645],[30.485645,-7.627148],[30.558887,-7.781934],[30.653809,-7.970898],[30.720898,-8.104395],[30.751172,-8.193652]]]}},{"type":"Feature","properties":{"code":"CG","name":"République du Congo"},"geometry":{"type":"Polygon","coordinates":[[[11.130176,-3.916309],[11.190039,-3.762012],[11.234473,-3.69082],[11.288281,-3.641113],[11.504297,-3.520313],[11.536816,-3.525],[11.685742,-3.682031],[11.733398,-3.694531],[11.786426,-3.690234],[11.849121,-3.69668],[11.879883,-3.665918],[11.884766,-3.625391],[11.839453,-3.580078],[11.83291,-3.531445],[11.864746,-3.478613],[11.882812,-3.420215],[11.929297,-3.350977],[11.93418,-3.318555],[11.885059,-3.283203],[11.784375,-3.229102],[11.71543,-3.176953],[11.689063,-3.126953],[11.708008,-3.063086],[11.763477,-3.01123],[11.760156,-2.983105],[11.711328,-2.936523],[11.675684,-2.886621],[11.639063,-2.855371],[11.537793,-2.836719],[11.557129,-2.769629],[11.594531,-2.670996],[11.603418,-2.59541],[11.575195,-2.39707],[11.577734,-2.360938],[11.605469,-2.342578],[11.665918,-2.364551],[11.726758,-2.394727],[11.892383,-2.351465],[11.950293,-2.344824],[11.998242,-2.382812],[12.064453,-2.412598],[12.446387,-2.32998],[12.453809,-2.245605],[12.475684,-2.169238],[12.478516,-2.112012],[12.462598,-2.075293],[12.44375,-2.047559],[12.432422,-1.990332],[12.432129,-1.928906],[12.468652,-1.9],[12.59043,-1.826855],[12.628418,-1.82959],[12.713672,-1.869434],[12.793555,-1.931836],[12.864453,-2.063281],[12.913574,-2.17627],[12.991992,-2.313379],[13.158594,-2.369141],[13.357324,-2.404785],[13.464941,-2.39541],[13.618555,-2.278613],[13.705566,-2.1875],[13.733789,-2.138477],[13.784375,-2.16377],[13.841602,-2.283691],[13.878516,-2.330176],[13.887695,-2.374512],[13.861816,-2.429883],[13.886914,-2.46543],[13.993848,-2.490625],[14.087402,-2.466895],[14.129785,-2.417969],[14.199805,-2.354199],[14.200391,-2.300586],[14.162891,-2.265527],[14.162891,-2.217578],[14.201758,-2.179883],[14.239648,-2.076758],[14.251465,-2.001465],[14.288379,-1.953516],[14.358594,-1.920215],[14.383984,-1.890039],[14.423242,-1.711523],[14.40293,-1.646973],[14.40293,-1.593359],[14.447266,-1.525098],[14.455566,-1.413184],[14.436914,-1.229785],[14.424023,-1.103906],[14.410645,-0.97207],[14.444922,-0.798828],[14.480566,-0.618359],[14.474121,-0.573438],[14.424707,-0.518652],[14.36377,-0.468555],[14.206738,-0.427344],[14.14834,-0.361914],[14.102832,-0.292383],[14.069434,-0.270117],[13.898047,-0.242578],[13.860059,-0.20332],[13.875488,-0.09082],[13.890625,0.075293],[13.88457,0.19082],[13.915137,0.283984],[13.949609,0.353809],[14.025293,0.427734],[14.065527,0.51499],[14.0875,0.536572],[14.230957,0.551123],[14.283105,0.587451],[14.324219,0.624219],[14.341504,0.673828],[14.390625,0.755713],[14.434473,0.811475],[14.43916,0.849121],[14.429883,0.901465],[14.386426,1.004443],[14.334473,1.090234],[14.303027,1.12085],[14.239746,1.322559],[14.180859,1.370215],[14.066211,1.395898],[13.851367,1.41875],[13.721191,1.382275],[13.52334,1.3146],[13.372363,1.267773],[13.274121,1.241016],[13.216309,1.248437],[13.190137,1.279248],[13.22832,1.30542],[13.247363,1.366699],[13.222754,1.45459],[13.18457,1.535059],[13.162695,1.648096],[13.172168,1.788574],[13.209473,1.92041],[13.288672,2.091699],[13.293555,2.161572],[13.533496,2.159521],[13.772754,2.157422],[14.034375,2.158887],[14.287012,2.160352],[14.484082,2.154736],[14.578906,2.199121],[14.669141,2.13208],[14.713281,2.117139],[14.72832,2.122412],[14.762891,2.075195],[14.875,2.080469],[14.892773,2.069336],[14.902441,2.012305],[15.006445,2.01377],[15.057813,2.000879],[15.099609,2.002344],[15.160059,2.035596],[15.203516,2.024463],[15.282422,1.981738],[15.33877,1.944727],[15.41748,1.956738],[15.600293,1.950391],[15.741602,1.91499],[15.881641,1.816602],[15.975195,1.76001],[16.059375,1.676221],[16.090332,1.69126],[16.119531,1.714111],[16.136133,1.724219],[16.134961,1.795947],[16.087891,1.918066],[16.069629,2.02168],[16.080078,2.106787],[16.115723,2.167822],[16.176563,2.204785],[16.182617,2.262451],[16.183398,2.270068],[16.251758,2.406787],[16.319629,2.542773],[16.40127,2.701025],[16.468555,2.831738],[16.45957,2.896533],[16.466211,2.993213],[16.480078,3.100977],[16.476758,3.165137],[16.496289,3.208838],[16.543066,3.369531],[16.57041,3.463086],[16.610742,3.505371],[16.67334,3.535205],[16.764355,3.536279],[17.002539,3.556689],[17.224707,3.598437],[17.298438,3.617188],[17.437988,3.684619],[17.491602,3.687305],[17.537695,3.661621],[17.806641,3.58418],[17.880371,3.553857],[17.907129,3.558398],[17.947949,3.551758],[18.010742,3.55083],[18.072266,3.560303],[18.111328,3.551074],[18.160938,3.499805],[18.193945,3.50542],[18.237109,3.542676],[18.318164,3.580811],[18.474414,3.622998],[18.499805,3.604102],[18.553809,3.510205],[18.610352,3.478418],[18.622168,3.304053],[18.54707,3.087012],[18.490918,2.924414],[18.343457,2.65542],[18.211621,2.414941],[18.072168,2.013281],[18.072852,1.719385],[18.057813,1.534863],[18.011719,1.422119],[17.902441,1.118066],[17.885742,0.856885],[17.925195,0.537305],[17.887695,0.234131],[17.773145,-0.052393],[17.724121,-0.277539],[17.752832,-0.549023],[17.542871,-0.775],[17.278809,-0.999609],[17.107617,-1.064453],[16.974707,-1.139941],[16.879883,-1.225879],[16.849121,-1.272461],[16.780078,-1.376367],[16.622461,-1.698926],[16.540723,-1.840137],[16.433594,-1.96084],[16.273926,-2.108203],[16.215332,-2.177832],[16.191602,-2.279102],[16.201855,-2.464746],[16.217383,-3.030273],[16.190625,-3.194434],[16.146777,-3.46416],[15.990039,-3.766211],[15.872461,-3.934277],[15.75459,-3.985547],[15.600098,-4.030957],[15.525977,-4.087988],[15.480957,-4.171777],[15.394629,-4.244922],[15.267188,-4.307617],[15.10625,-4.461035],[14.912109,-4.705566],[14.779297,-4.845703],[14.70791,-4.881738],[14.633984,-4.885059],[14.557617,-4.855762],[14.493945,-4.85166],[14.461621,-4.864941],[14.440918,-4.854102],[14.410742,-4.83125],[14.411914,-4.775],[14.40293,-4.681641],[14.36543,-4.585547],[14.409961,-4.508105],[14.449805,-4.449512],[14.442773,-4.419043],[14.40293,-4.369727],[14.358301,-4.299414],[14.316211,-4.304102],[14.227051,-4.358105],[14.133887,-4.4],[14.046875,-4.41748],[13.978418,-4.46123],[13.940918,-4.484668],[13.882324,-4.484668],[13.849512,-4.458887],[13.778027,-4.433887],[13.739063,-4.44248],[13.71709,-4.454492],[13.707617,-4.543262],[13.699414,-4.618359],[13.685352,-4.688672],[13.65957,-4.721484],[13.55166,-4.756738],[13.478418,-4.80498],[13.414941,-4.837402],[13.375781,-4.829395],[13.297266,-4.765234],[13.219629,-4.705859],[13.176465,-4.655859],[13.152344,-4.620313],[13.136621,-4.604297],[13.087402,-4.601953],[13.072754,-4.634766],[13.048047,-4.619238],[12.971387,-4.551758],[12.881055,-4.445117],[12.848145,-4.428906],[12.798242,-4.430566],[12.719434,-4.469727],[12.641699,-4.531152],[12.501465,-4.5875],[12.38457,-4.619141],[12.374023,-4.657715],[12.34668,-4.724121],[12.30791,-4.765527],[12.204297,-4.778613],[12.16709,-4.837695],[12.077539,-4.952148],[12.018359,-5.004297],[12.002734,-4.982031],[11.966797,-4.954395],[11.893262,-4.865723],[11.820703,-4.755469],[11.80127,-4.705176],[11.780859,-4.676563],[11.777539,-4.56582],[11.668066,-4.434277],[11.393848,-4.200293],[11.364453,-4.130566],[11.130176,-3.916309]]]}},{"type":"Feature","properties":{"code":"TD","name":"Tchad"},"geometry":{"type":"Polygon","coordinates":[[[23.980273,19.496631],[23.980664,19.050586],[23.981055,18.604541],[23.981445,18.158496],[23.981836,17.712402],[23.982227,17.266357],[23.98252,16.820264],[23.98291,16.374219],[23.983301,15.928125],[23.983398,15.780176],[23.970801,15.721533],[23.965234,15.713428],[23.945996,15.703516],[23.708203,15.744971],[23.604004,15.745996],[23.458008,15.713965],[23.243457,15.697217],[23.105176,15.702539],[23.00918,15.62583],[22.933887,15.533105],[22.969531,15.311328],[22.961328,15.238135],[22.932324,15.162109],[22.867188,15.096631],[22.802148,15.044434],[22.763281,14.998682],[22.714941,14.898389],[22.679199,14.851465],[22.682422,14.788623],[22.670898,14.722461],[22.631836,14.688086],[22.532031,14.662744],[22.467773,14.63335],[22.416211,14.585205],[22.381543,14.550488],[22.399707,14.504199],[22.425,14.441211],[22.439355,14.342139],[22.449316,14.284229],[22.49834,14.237061],[22.528223,14.203223],[22.538574,14.161865],[22.509961,14.127441],[22.388184,14.055518],[22.339355,14.028857],[22.283496,13.992334],[22.262109,13.978711],[22.173145,13.910596],[22.128223,13.850146],[22.106445,13.799805],[22.107617,13.730322],[22.15293,13.626416],[22.202344,13.538086],[22.221387,13.471631],[22.232617,13.398779],[22.228125,13.32959],[22.202637,13.269336],[22.158008,13.215039],[21.990234,13.113086],[21.907715,13.000977],[21.841797,12.864746],[21.825293,12.790527],[21.843359,12.741211],[21.878125,12.699365],[21.928125,12.678125],[22.000684,12.671875],[22.121191,12.69458],[22.233398,12.709473],[22.352344,12.660449],[22.414453,12.546387],[22.390234,12.462988],[22.435254,12.311914],[22.475488,12.129248],[22.472461,12.067773],[22.489844,12.044727],[22.564355,12.032959],[22.580957,11.990137],[22.556348,11.669531],[22.591113,11.579883],[22.641016,11.515918],[22.697363,11.482666],[22.754004,11.439844],[22.783398,11.409961],[22.849023,11.403271],[22.922656,11.344873],[22.942773,11.267187],[22.937695,11.192041],[22.894824,11.029004],[22.860059,10.919678],[22.817383,10.927197],[22.730176,10.954053],[22.624023,10.977344],[22.493848,10.99624],[22.369824,10.951514],[22.235938,10.894141],[22.193652,10.851367],[22.15625,10.826074],[22.097168,10.830078],[22.043164,10.822705],[22.01377,10.782031],[21.964844,10.73667],[21.771484,10.642822],[21.730664,10.608691],[21.706543,10.574805],[21.706543,10.537891],[21.726172,10.461621],[21.725781,10.366553],[21.682715,10.289844],[21.632715,10.238281],[21.575781,10.218555],[21.528027,10.207812],[21.496875,10.175684],[21.395996,10.001367],[21.352441,9.969141],[21.263867,9.974609],[21.009473,9.713232],[20.98418,9.636279],[20.891016,9.527148],[20.773242,9.405664],[20.668164,9.347119],[20.659668,9.324512],[20.631445,9.301367],[20.566895,9.274951],[20.34209,9.1271],[20.072656,9.133203],[19.953516,9.075146],[19.837695,9.049365],[19.668359,9.020898],[19.61748,9.023584],[19.400293,9.011621],[19.145508,9.015967],[19.047852,8.99502],[18.95625,8.938867],[18.888281,8.889746],[18.87832,8.873193],[18.888574,8.85249],[18.886035,8.836035],[19.06416,8.71543],[19.108691,8.656152],[19.063867,8.598828],[19.042383,8.590283],[19.039844,8.586914],[19.01084,8.541211],[18.906445,8.405078],[18.747461,8.243799],[18.666211,8.197705],[18.633594,8.167725],[18.591602,8.060791],[18.56416,8.045898],[18.455078,8.032031],[18.238867,8.020361],[17.940137,7.985449],[17.76084,7.973828],[17.649414,7.983594],[17.492676,7.909814],[17.436426,7.890918],[17.402148,7.88457],[17.246973,7.812988],[17.117969,7.701904],[17.071973,7.680811],[16.890332,7.633691],[16.818164,7.557324],[16.784766,7.550977],[16.668359,7.651758],[16.588965,7.743359],[16.550195,7.835889],[16.545313,7.865479],[16.523242,7.859961],[16.459375,7.818994],[16.404395,7.772363],[16.378906,7.683545],[16.191113,7.623437],[16.030664,7.572119],[15.957617,7.507568],[15.84502,7.475293],[15.70127,7.488428],[15.589258,7.515039],[15.480078,7.523779],[15.532422,7.604395],[15.552637,7.664502],[15.557813,7.738037],[15.549805,7.787891],[15.484473,7.812744],[15.442969,7.851855],[15.349023,8.083838],[15.252344,8.322363],[15.116211,8.557324],[14.967969,8.707275],[14.860742,8.798633],[14.82627,8.810303],[14.771289,8.83916],[14.732813,8.865674],[14.536133,9.025244],[14.332324,9.203516],[14.280078,9.285059],[14.17793,9.406494],[14.06416,9.531738],[14.00498,9.588721],[13.977246,9.691553],[14.055957,9.784375],[14.139746,9.901807],[14.243262,9.979736],[14.377246,9.985059],[14.597949,9.953076],[14.83584,9.941699],[15.071582,9.965967],[15.132715,9.982861],[15.193164,9.981494],[15.32002,9.954297],[15.540918,9.960303],[15.654883,10.007812],[15.531934,10.088477],[15.399902,10.216895],[15.276074,10.357373],[15.200977,10.484521],[15.132227,10.648486],[15.068652,10.851074],[15.029883,11.113672],[15.035742,11.2625],[15.055469,11.368555],[15.121973,11.54126],[15.078027,11.642578],[15.087695,11.724365],[15.08125,11.845508],[15.059863,11.907129],[14.973828,12.10835],[14.956738,12.130371],[14.880664,12.269385],[14.84707,12.5021],[14.76123,12.655615],[14.623242,12.729932],[14.544727,12.820215],[14.516211,12.979736],[14.461719,13.021777],[14.244824,13.077344],[14.063965,13.078516],[13.932324,13.258496],[13.763477,13.489551],[13.606348,13.70459],[13.505762,14.134424],[13.448242,14.380664],[13.513672,14.455518],[13.642383,14.630762],[13.807129,14.966113],[14.178223,15.484766],[14.367969,15.750146],[14.74668,16.146631],[15.212109,16.633887],[15.474316,16.908398],[15.516699,17.408496],[15.561523,17.937256],[15.595508,18.337061],[15.637598,18.81084],[15.672949,19.206787],[15.698633,19.495215],[15.735059,19.904053],[15.766211,19.982568],[15.948828,20.303174],[15.963184,20.346191],[15.929297,20.399854],[15.668457,20.672363],[15.587109,20.733301],[15.540332,20.874902],[15.607324,20.954395],[15.293652,21.411523],[15.21582,21.467432],[15.181836,21.523389],[15.177832,21.605811],[15.172266,21.92207],[15.088965,22.418359],[14.979004,22.996191],[15.347461,23.160693],[15.627148,23.285742],[15.984082,23.445215],[16.315039,23.281836],[16.794141,23.045264],[17.273242,22.808691],[17.752246,22.572119],[18.231348,22.335547],[18.710449,22.098975],[19.189453,21.862402],[19.668555,21.62583],[20.147656,21.389258],[20.626758,21.152637],[21.105859,20.916113],[21.584961,20.679492],[22.064063,20.44292],[22.543066,20.206348],[23.022168,19.969775],[23.50127,19.733203],[23.980273,19.496631]]]}},{"type":"Feature","properties":{"code":"CF","name":"République centrafricaine"},"geometry":{"type":"Polygon","coordinates":[[[24.147363,8.665625],[24.194824,8.653369],[24.220898,8.608252],[24.17998,8.461133],[24.208398,8.369141],[24.291406,8.291406],[24.375488,8.258447],[24.456055,8.239453],[24.736719,8.191553],[24.85332,8.137549],[25.007227,7.964844],[25.200391,7.80791],[25.247363,7.724561],[25.238672,7.648975],[25.181348,7.557227],[25.190137,7.519336],[25.278906,7.42749],[25.380664,7.333398],[25.566602,7.228711],[25.888965,7.064941],[26.036523,6.955225],[26.086914,6.872119],[26.169336,6.781738],[26.28457,6.699023],[26.361816,6.635303],[26.308594,6.455322],[26.324609,6.39624],[26.35332,6.344922],[26.420508,6.27417],[26.447461,6.183008],[26.514258,6.069238],[26.593652,6.017529],[26.726367,5.998242],[26.796484,5.945508],[26.942285,5.854932],[27.083398,5.776855],[27.143945,5.722949],[27.18125,5.675146],[27.213379,5.618799],[27.229102,5.5625],[27.23252,5.440771],[27.256738,5.289648],[27.332422,5.186328],[27.40332,5.10918],[27.114941,5.197852],[27.071875,5.199756],[27.020605,5.184375],[26.870117,5.075684],[26.82207,5.062402],[26.767578,5.071924],[26.632617,5.085205],[26.173535,5.171143],[25.819922,5.253711],[25.713867,5.283691],[25.525098,5.312109],[25.400195,5.255908],[25.283105,5.062695],[25.249316,5.024561],[25.065234,4.967432],[24.978418,4.982959],[24.765527,4.930078],[24.437109,5.009961],[24.319824,4.994141],[24.227734,4.953857],[23.991699,4.86626],[23.848438,4.816357],[23.681836,4.770801],[23.523633,4.70127],[23.417188,4.663135],[23.312891,4.663525],[23.218848,4.702979],[23.115918,4.736914],[22.992871,4.743848],[22.864551,4.723877],[22.755762,4.64668],[22.711719,4.591748],[22.617188,4.445557],[22.505664,4.207666],[22.461816,4.159766],[22.449707,4.155127],[22.422168,4.134961],[21.908203,4.253906],[21.687012,4.281396],[21.537598,4.244824],[21.350195,4.311377],[21.268359,4.323096],[21.229785,4.302197],[21.125586,4.332178],[20.955762,4.413135],[20.792969,4.447314],[20.647461,4.435645],[20.558105,4.462695],[20.486523,4.541553],[20.393555,4.686182],[20.226367,4.829639],[20.002344,4.944727],[19.8625,5.031299],[19.806543,5.089307],[19.686035,5.121387],[19.500977,5.12749],[19.323438,5.070752],[19.068555,4.891406],[18.831738,4.523438],[18.699902,4.382617],[18.594141,4.34624],[18.56748,4.257568],[18.619922,4.116602],[18.633691,3.954297],[18.59668,3.678711],[18.610352,3.478418],[18.553809,3.510205],[18.499805,3.604102],[18.474414,3.622998],[18.318164,3.580811],[18.237109,3.542676],[18.193945,3.50542],[18.160938,3.499805],[18.111328,3.551074],[18.072266,3.560303],[18.010742,3.55083],[17.947949,3.551758],[17.907129,3.558398],[17.880371,3.553857],[17.806641,3.58418],[17.537695,3.661621],[17.491602,3.687305],[17.437988,3.684619],[17.298438,3.617188],[17.224707,3.598437],[17.002539,3.556689],[16.764355,3.536279],[16.67334,3.535205],[16.610742,3.505371],[16.57041,3.463086],[16.543066,3.369531],[16.496289,3.208838],[16.476758,3.165137],[16.480078,3.100977],[16.466211,2.993213],[16.45957,2.896533],[16.468555,2.831738],[16.40127,2.701025],[16.319629,2.542773],[16.251758,2.406787],[16.183398,2.270068],[16.136133,2.36377],[16.106738,2.473486],[16.095508,2.599219],[16.101855,2.632666],[16.083496,2.67002],[16.082129,2.678174],[16.059277,2.772998],[16.082422,2.839111],[16.063477,2.908594],[16.008203,2.97666],[15.958008,3.028711],[15.928711,3.075781],[15.904883,3.09585],[15.849316,3.103076],[15.775,3.127197],[15.676563,3.229687],[15.580859,3.329297],[15.458398,3.456836],[15.360156,3.567139],[15.239844,3.702148],[15.128711,3.826904],[15.062109,3.947217],[15.034863,4.016357],[15.067383,4.022949],[15.11543,4.024463],[15.13584,4.036914],[15.136914,4.069141],[15.0875,4.163965],[15.063574,4.284863],[15.022754,4.358545],[14.893555,4.471875],[14.77041,4.558105],[14.73125,4.602393],[14.708984,4.665576],[14.661719,5.065527],[14.640625,5.179053],[14.601758,5.228809],[14.573535,5.251709],[14.562988,5.279932],[14.568066,5.351074],[14.584375,5.414746],[14.583594,5.439648],[14.616895,5.495508],[14.616895,5.865137],[14.598828,5.883984],[14.577246,5.916016],[14.54248,5.913574],[14.503125,5.916895],[14.463867,5.970703],[14.431152,6.038721],[14.440723,6.086719],[14.475,6.126807],[14.512109,6.161914],[14.559375,6.191211],[14.699512,6.250244],[14.739258,6.279785],[14.764063,6.316357],[14.780371,6.365723],[14.861914,6.555713],[14.982715,6.745312],[15.03457,6.784424],[15.086328,6.909912],[15.157129,7.063574],[15.18584,7.134912],[15.206738,7.206152],[15.245898,7.263574],[15.379102,7.358154],[15.480078,7.523779],[15.589258,7.515039],[15.70127,7.488428],[15.84502,7.475293],[15.957617,7.507568],[16.030664,7.572119],[16.191113,7.623437],[16.378906,7.683545],[16.404395,7.772363],[16.459375,7.818994],[16.523242,7.859961],[16.545313,7.865479],[16.550195,7.835889],[16.588965,7.743359],[16.668359,7.651758],[16.784766,7.550977],[16.818164,7.557324],[16.890332,7.633691],[17.071973,7.680811],[17.117969,7.701904],[17.246973,7.812988],[17.402148,7.88457],[17.436426,7.890918],[17.492676,7.909814],[17.649414,7.983594],[17.76084,7.973828],[17.940137,7.985449],[18.238867,8.020361],[18.455078,8.032031],[18.56416,8.045898],[18.591602,8.060791],[18.633594,8.167725],[18.666211,8.197705],[18.747461,8.243799],[18.906445,8.405078],[19.01084,8.541211],[19.039844,8.586914],[19.042383,8.590283],[19.063867,8.598828],[19.108691,8.656152],[19.06416,8.71543],[18.886035,8.836035],[18.888574,8.85249],[18.87832,8.873193],[18.888281,8.889746],[18.95625,8.938867],[19.047852,8.99502],[19.145508,9.015967],[19.400293,9.011621],[19.61748,9.023584],[19.668359,9.020898],[19.837695,9.049365],[19.953516,9.075146],[20.072656,9.133203],[20.34209,9.1271],[20.566895,9.274951],[20.631445,9.301367],[20.659668,9.324512],[20.668164,9.347119],[20.773242,9.405664],[20.891016,9.527148],[20.98418,9.636279],[21.009473,9.713232],[21.263867,9.974609],[21.352441,9.969141],[21.395996,10.001367],[21.496875,10.175684],[21.528027,10.207812],[21.575781,10.218555],[21.632715,10.238281],[21.682715,10.289844],[21.725781,10.366553],[21.726172,10.461621],[21.706543,10.537891],[21.706543,10.574805],[21.730664,10.608691],[21.771484,10.642822],[21.964844,10.73667],[22.01377,10.782031],[22.043164,10.822705],[22.097168,10.830078],[22.15625,10.826074],[22.193652,10.851367],[22.235938,10.894141],[22.369824,10.951514],[22.493848,10.99624],[22.624023,10.977344],[22.730176,10.954053],[22.817383,10.927197],[22.860059,10.919678],[22.930762,10.795312],[22.964355,10.751807],[23.255859,10.457812],[23.312305,10.387939],[23.456641,10.174268],[23.54502,10.030078],[23.646289,9.8229],[23.65625,9.710352],[23.642773,9.613916],[23.622656,9.340625],[23.596094,9.261914],[23.468262,9.114746],[23.462793,9.048486],[23.489063,8.993311],[23.528027,8.970605],[23.551855,8.943213],[23.537305,8.81582],[23.583203,8.76582],[23.679297,8.732471],[23.921973,8.709717],[24.048145,8.691309],[24.147363,8.665625]]]}},{"type":"Feature","properties":{"code":"CM","name":"Cameroun"},"geometry":{"type":"Polygon","coordinates":[[[8.555859,4.755225],[8.585156,4.832812],[8.640527,4.927002],[8.715625,5.046875],[8.800977,5.197461],[8.85918,5.46377],[8.898828,5.629687],[8.935059,5.781006],[8.997168,5.917725],[9.060156,6.009082],[9.23877,6.186133],[9.37334,6.319629],[9.442188,6.373389],[9.490234,6.418652],[9.574023,6.47041],[9.659961,6.531982],[9.725586,6.65],[9.779883,6.760156],[9.820703,6.783936],[9.874219,6.803271],[10.038867,6.921387],[10.143555,6.996436],[10.167773,6.95918],[10.185547,6.912793],[10.205469,6.891602],[10.293066,6.876758],[10.413184,6.877734],[10.482324,6.89126],[10.519043,6.930469],[10.556348,7.037451],[10.578125,7.057715],[10.60625,7.063086],[10.737598,6.988281],[10.846484,6.881787],[10.954199,6.776562],[11.008691,6.739111],[11.03252,6.6979],[11.079688,6.505518],[11.106445,6.457715],[11.15332,6.437939],[11.237305,6.450537],[11.324609,6.484668],[11.401758,6.533936],[11.477539,6.597412],[11.529102,6.655029],[11.55166,6.697266],[11.562988,6.854639],[11.580078,6.888867],[11.65752,6.951562],[11.787012,7.056201],[11.861426,7.116406],[11.854785,7.137988],[11.808594,7.201953],[11.767383,7.272266],[11.80918,7.345068],[11.852441,7.400732],[12.016016,7.589746],[12.016602,7.652002],[12.025195,7.727783],[12.155957,7.94248],[12.231152,8.227393],[12.233398,8.282324],[12.311328,8.419727],[12.403516,8.595557],[12.582715,8.624121],[12.651563,8.667773],[12.731152,8.745654],[12.782227,8.817871],[12.806543,8.886621],[12.824414,9.019434],[12.855957,9.170752],[12.875684,9.303516],[12.929492,9.42627],[13.019434,9.48833],[13.175488,9.539648],[13.19873,9.56377],[13.221191,9.645166],[13.23877,9.814014],[13.24375,9.915918],[13.249805,9.960059],[13.269922,10.036182],[13.414551,10.171436],[13.478516,10.383252],[13.535352,10.605078],[13.699902,10.873145],[13.89209,11.140088],[13.981445,11.211865],[14.056738,11.24502],[14.143262,11.248535],[14.202344,11.268164],[14.409473,11.401172],[14.496094,11.446143],[14.559766,11.492285],[14.575391,11.532422],[14.581641,11.591162],[14.561816,11.728711],[14.597363,11.829834],[14.618164,11.986621],[14.627148,12.108691],[14.619727,12.150977],[14.587012,12.209424],[14.580957,12.22207],[14.518945,12.298242],[14.41543,12.344141],[14.272852,12.356494],[14.197461,12.383789],[14.184863,12.447217],[14.177637,12.484082],[14.170313,12.524072],[14.160059,12.612793],[14.063965,13.078516],[14.244824,13.077344],[14.461719,13.021777],[14.516211,12.979736],[14.544727,12.820215],[14.623242,12.729932],[14.76123,12.655615],[14.84707,12.5021],[14.880664,12.269385],[14.956738,12.130371],[14.973828,12.10835],[15.059863,11.907129],[15.08125,11.845508],[15.087695,11.724365],[15.078027,11.642578],[15.121973,11.54126],[15.055469,11.368555],[15.035742,11.2625],[15.029883,11.113672],[15.068652,10.851074],[15.132227,10.648486],[15.200977,10.484521],[15.276074,10.357373],[15.399902,10.216895],[15.531934,10.088477],[15.654883,10.007812],[15.540918,9.960303],[15.32002,9.954297],[15.193164,9.981494],[15.132715,9.982861],[15.071582,9.965967],[14.83584,9.941699],[14.597949,9.953076],[14.377246,9.985059],[14.243262,9.979736],[14.139746,9.901807],[14.055957,9.784375],[13.977246,9.691553],[14.00498,9.588721],[14.06416,9.531738],[14.17793,9.406494],[14.280078,9.285059],[14.332324,9.203516],[14.536133,9.025244],[14.732813,8.865674],[14.771289,8.83916],[14.82627,8.810303],[14.860742,8.798633],[14.967969,8.707275],[15.116211,8.557324],[15.252344,8.322363],[15.349023,8.083838],[15.442969,7.851855],[15.484473,7.812744],[15.549805,7.787891],[15.557813,7.738037],[15.552637,7.664502],[15.532422,7.604395],[15.480078,7.523779],[15.379102,7.358154],[15.245898,7.263574],[15.206738,7.206152],[15.18584,7.134912],[15.157129,7.063574],[15.086328,6.909912],[15.03457,6.784424],[14.982715,6.745312],[14.861914,6.555713],[14.780371,6.365723],[14.764063,6.316357],[14.739258,6.279785],[14.699512,6.250244],[14.559375,6.191211],[14.512109,6.161914],[14.475,6.126807],[14.440723,6.086719],[14.431152,6.038721],[14.463867,5.970703],[14.503125,5.916895],[14.54248,5.913574],[14.577246,5.916016],[14.598828,5.883984],[14.616895,5.865137],[14.616895,5.495508],[14.583594,5.439648],[14.584375,5.414746],[14.568066,5.351074],[14.562988,5.279932],[14.573535,5.251709],[14.601758,5.228809],[14.640625,5.179053],[14.661719,5.065527],[14.708984,4.665576],[14.73125,4.602393],[14.77041,4.558105],[14.893555,4.471875],[15.022754,4.358545],[15.063574,4.284863],[15.0875,4.163965],[15.136914,4.069141],[15.13584,4.036914],[15.11543,4.024463],[15.067383,4.022949],[15.034863,4.016357],[15.062109,3.947217],[15.128711,3.826904],[15.239844,3.702148],[15.360156,3.567139],[15.458398,3.456836],[15.580859,3.329297],[15.676563,3.229687],[15.775,3.127197],[15.849316,3.103076],[15.904883,3.09585],[15.928711,3.075781],[15.958008,3.028711],[16.008203,2.97666],[16.063477,2.908594],[16.082422,2.839111],[16.059277,2.772998],[16.082129,2.678174],[16.083496,2.67002],[16.101855,2.632666],[16.095508,2.599219],[16.106738,2.473486],[16.136133,2.36377],[16.183398,2.270068],[16.182617,2.262451],[16.176563,2.204785],[16.115723,2.167822],[16.080078,2.106787],[16.069629,2.02168],[16.087891,1.918066],[16.134961,1.795947],[16.136133,1.724219],[16.119531,1.714111],[16.090332,1.69126],[16.059375,1.676221],[15.975195,1.76001],[15.881641,1.816602],[15.741602,1.91499],[15.600293,1.950391],[15.41748,1.956738],[15.33877,1.944727],[15.282422,1.981738],[15.203516,2.024463],[15.160059,2.035596],[15.099609,2.002344],[15.057813,2.000879],[15.006445,2.01377],[14.902441,2.012305],[14.892773,2.069336],[14.875,2.080469],[14.762891,2.075195],[14.72832,2.122412],[14.713281,2.117139],[14.669141,2.13208],[14.578906,2.199121],[14.484082,2.154736],[14.287012,2.160352],[14.034375,2.158887],[13.772754,2.157422],[13.533496,2.159521],[13.293555,2.161572],[13.269922,2.224219],[13.220313,2.256445],[13.130859,2.259424],[12.86748,2.246777],[12.665723,2.256787],[12.601367,2.265039],[12.529785,2.281348],[12.361328,2.295996],[12.153418,2.284375],[12.106152,2.2875],[11.939746,2.285156],[11.558984,2.302197],[11.348438,2.299707],[11.35332,2.261426],[11.339941,2.233838],[11.328711,2.167432],[11.096582,2.16748],[10.790918,2.167578],[10.502246,2.167627],[10.307031,2.167725],[9.979883,2.167773],[9.870117,2.213281],[9.836914,2.242383],[9.830371,2.275488],[9.826172,2.297803],[9.800781,2.304443],[9.821777,2.539258],[9.867578,2.734961],[9.885449,2.916553],[9.948438,3.079053],[9.915039,3.239648],[9.876172,3.309766],[9.67207,3.537598],[9.765723,3.623828],[9.642383,3.611768],[9.615918,3.696484],[9.556152,3.798047],[9.592773,3.814307],[9.628125,3.87002],[9.739648,3.85293],[9.736133,3.880127],[9.639941,3.965332],[9.649219,4.00835],[9.688867,4.056396],[9.669531,4.07666],[9.600391,4.026904],[9.550586,4.028418],[9.511816,4.060645],[9.483691,4.066113],[9.500781,4.000732],[9.462012,3.942529],[9.425293,3.922314],[9.362305,3.925732],[9.310938,3.940381],[9.297363,3.972949],[9.249121,3.997852],[9.113867,4.041064],[9.000098,4.091602],[8.977051,4.23042],[8.932031,4.290234],[8.913574,4.357812],[8.902832,4.435156],[8.918262,4.55376],[8.889453,4.572754],[8.856445,4.579248],[8.807129,4.573437],[8.761914,4.580029],[8.70791,4.645703],[8.660352,4.670996],[8.689648,4.550244],[8.65625,4.516357],[8.574414,4.526221],[8.539551,4.571875],[8.532813,4.605859],[8.570508,4.7521],[8.555859,4.755225]]]}},{"type":"Feature","properties":{"code":"BI","name":"Burundi"},"geometry":{"type":"Polygon","coordinates":[[[30.553613,-2.400098],[30.533691,-2.42627],[30.441992,-2.613477],[30.424219,-2.641602],[30.434375,-2.658887],[30.47334,-2.694336],[30.450488,-2.753223],[30.441309,-2.769043],[30.424023,-2.824023],[30.433496,-2.874512],[30.455566,-2.893164],[30.515039,-2.917578],[30.604297,-2.935254],[30.709473,-2.977246],[30.780273,-2.984863],[30.796875,-3.015137],[30.793555,-3.069336],[30.811133,-3.116406],[30.811426,-3.200586],[30.790234,-3.274609],[30.681836,-3.309375],[30.626074,-3.347363],[30.610938,-3.366406],[30.624609,-3.388672],[30.631934,-3.418652],[30.529883,-3.49248],[30.425,-3.588867],[30.4,-3.653906],[30.379102,-3.730762],[30.348438,-3.779785],[30.268555,-3.850488],[30.187109,-3.992871],[30.147168,-4.085352],[29.947266,-4.307324],[29.769531,-4.418066],[29.717773,-4.455859],[29.403223,-4.449316],[29.379199,-4.299707],[29.331348,-4.09541],[29.223242,-3.91084],[29.211816,-3.833789],[29.216797,-3.684961],[29.217188,-3.475684],[29.210059,-3.363281],[29.212305,-3.28125],[29.226074,-3.138672],[29.224414,-3.053516],[29.153223,-2.955273],[29.064746,-2.850781],[29.016602,-2.799609],[29.01416,-2.758301],[29.014355,-2.720215],[29.028613,-2.664551],[29.063184,-2.602539],[29.102051,-2.595703],[29.197559,-2.620313],[29.29707,-2.673047],[29.349805,-2.791504],[29.390234,-2.808594],[29.463672,-2.808398],[29.651367,-2.792773],[29.698047,-2.794727],[29.783398,-2.766406],[29.868164,-2.716406],[29.892578,-2.664648],[29.912402,-2.548633],[29.930176,-2.339551],[29.973438,-2.337109],[30.091895,-2.411523],[30.117285,-2.416602],[30.142285,-2.413965],[30.183301,-2.377051],[30.233789,-2.34707],[30.270996,-2.347852],[30.408496,-2.312988],[30.482227,-2.376074],[30.528906,-2.395605],[30.553613,-2.400098]]]}},{"type":"Feature","properties":{"code":"AO","name":"Angola"},"geometry":{"type":"MultiPolygon","coordinates":[[[[13.072754,-4.634766],[13.057324,-4.651074],[12.947461,-4.695312],[12.829688,-4.736621],[12.674805,-4.905371],[12.596191,-4.978418],[12.573535,-4.996582],[12.502734,-5.036914],[12.451465,-5.071484],[12.453223,-5.090625],[12.487402,-5.112695],[12.522363,-5.148926],[12.518945,-5.424609],[12.503711,-5.695801],[12.48457,-5.71875],[12.386035,-5.727734],[12.255273,-5.746484],[12.213672,-5.758691],[12.199023,-5.731934],[12.155469,-5.632715],[12.180078,-5.538672],[12.206543,-5.468262],[12.177148,-5.324805],[12.110547,-5.197168],[12.039941,-5.035156],[12.018359,-5.004297],[12.077539,-4.952148],[12.16709,-4.837695],[12.204297,-4.778613],[12.30791,-4.765527],[12.34668,-4.724121],[12.374023,-4.657715],[12.38457,-4.619141],[12.501465,-4.5875],[12.641699,-4.531152],[12.719434,-4.469727],[12.798242,-4.430566],[12.848145,-4.428906],[12.881055,-4.445117],[12.971387,-4.551758],[13.048047,-4.619238],[13.072754,-4.634766]]],[[[23.966504,-10.871777],[23.988281,-11.002832],[24.010059,-11.184766],[24.025586,-11.315625],[24.041406,-11.374121],[24.04668,-11.405371],[24.029297,-11.43916],[24.014648,-11.517676],[23.986816,-11.587207],[23.970996,-11.63584],[23.983887,-11.725],[23.973438,-11.85293],[23.962305,-11.987891],[23.958887,-12.117773],[23.996484,-12.350684],[23.991309,-12.422168],[23.944727,-12.54375],[23.909375,-12.636133],[23.886523,-12.743262],[23.882422,-12.799023],[23.968066,-12.956934],[23.962988,-12.988477],[23.897461,-12.998242],[23.843164,-13.000977],[23.63584,-13.000977],[23.338672,-13.000977],[23.041504,-13.000977],[22.744336,-13.000977],[22.470996,-13.000977],[22.20957,-13.000977],[21.978906,-13.000977],[21.979004,-13.156836],[21.979102,-13.477734],[21.979102,-13.79873],[21.979297,-14.119629],[21.979395,-14.440527],[21.979492,-14.761426],[21.97959,-15.082324],[21.979688,-15.403223],[21.979785,-15.724121],[21.979785,-15.955566],[22.040234,-16.262793],[22.150684,-16.597168],[22.193945,-16.628125],[22.305078,-16.689551],[22.459473,-16.815137],[22.545996,-16.910254],[22.721973,-17.075293],[22.955859,-17.285742],[23.181641,-17.474414],[23.380664,-17.640625],[23.068262,-17.698828],[22.624023,-17.781641],[22.324219,-17.8375],[21.96084,-17.905176],[21.718457,-17.947754],[21.416895,-18.000684],[21.36875,-17.999512],[21.287891,-17.962988],[21.113477,-17.955762],[20.908301,-18.006055],[20.745508,-18.019727],[20.625098,-17.99668],[20.507617,-17.952539],[20.392969,-17.887402],[20.194336,-17.863672],[19.911816,-17.881348],[19.639355,-17.868652],[19.377148,-17.825488],[19.189453,-17.808496],[19.076465,-17.817676],[18.955273,-17.803516],[18.825977,-17.766309],[18.718066,-17.703223],[18.588184,-17.57002],[18.486621,-17.442773],[18.460352,-17.424609],[18.428223,-17.405176],[18.396387,-17.399414],[18.108789,-17.395996],[17.835352,-17.392773],[17.678809,-17.392578],[17.296289,-17.391992],[16.913672,-17.391406],[16.531055,-17.39082],[16.148438,-17.390234],[15.76582,-17.389648],[15.383203,-17.38916],[15.000586,-17.388574],[14.617969,-17.387988],[14.414746,-17.387695],[14.225879,-17.397754],[14.01748,-17.408887],[13.987402,-17.404199],[13.937988,-17.38877],[13.904199,-17.360742],[13.791992,-17.288379],[13.694336,-17.233496],[13.561719,-17.141211],[13.475977,-17.040039],[13.403711,-17.007812],[13.275684,-16.989551],[13.179492,-16.97168],[13.101172,-16.967676],[12.963184,-17.01543],[12.859277,-17.062598],[12.785156,-17.108203],[12.656543,-17.160547],[12.548145,-17.212695],[12.359277,-17.205859],[12.318457,-17.213379],[12.213379,-17.209961],[12.114355,-17.164551],[12.013965,-17.168555],[11.902539,-17.226562],[11.743066,-17.249219],[11.780078,-16.871289],[11.818945,-16.704102],[11.819922,-16.504297],[11.796973,-15.986426],[11.769434,-15.915332],[11.750879,-15.831934],[11.849707,-15.768359],[11.899902,-15.719824],[11.967871,-15.633984],[12.016113,-15.513672],[12.073242,-15.248242],[12.280469,-14.6375],[12.378906,-14.039062],[12.503711,-13.755469],[12.550488,-13.437793],[12.897656,-13.027734],[12.983203,-12.775684],[13.162695,-12.652148],[13.416992,-12.52041],[13.597949,-12.286133],[13.685547,-12.123828],[13.785352,-11.812793],[13.784277,-11.487988],[13.847461,-11.054395],[13.833594,-10.929688],[13.738965,-10.757129],[13.721387,-10.633594],[13.633496,-10.512305],[13.539453,-10.420703],[13.49541,-10.257129],[13.332227,-9.998926],[13.2875,-9.826758],[13.209375,-9.703223],[13.196875,-9.550684],[13.155664,-9.389648],[13.075977,-9.230371],[12.998535,-9.048047],[12.998535,-8.991016],[13.046777,-8.922266],[13.092773,-8.899707],[13.077246,-8.934277],[13.046582,-8.975195],[13.053809,-9.006836],[13.358984,-8.687207],[13.37832,-8.624707],[13.368066,-8.554785],[13.366406,-8.469238],[13.378516,-8.369727],[13.09082,-7.780176],[12.862305,-7.231836],[12.823438,-6.954785],[12.521289,-6.590332],[12.402148,-6.353418],[12.334277,-6.187305],[12.283301,-6.124316],[12.302539,-6.092578],[12.380371,-6.084277],[12.553516,-6.045898],[12.790625,-6.003906],[13.009766,-5.907617],[13.068164,-5.864844],[13.184375,-5.85625],[13.302637,-5.881836],[13.346484,-5.863379],[13.371484,-5.861816],[13.649023,-5.861719],[13.764551,-5.855176],[13.978516,-5.857227],[14.11377,-5.865137],[14.19082,-5.875977],[14.398633,-5.892676],[14.65791,-5.888867],[14.749414,-5.880078],[15.089355,-5.874512],[15.425,-5.868848],[15.726953,-5.863867],[16.060156,-5.864941],[16.315234,-5.865625],[16.431445,-5.900195],[16.537109,-5.96582],[16.585156,-6.025293],[16.608008,-6.051563],[16.639551,-6.114551],[16.697266,-6.164258],[16.717773,-6.241406],[16.700977,-6.345996],[16.709375,-6.47168],[16.742969,-6.618457],[16.813086,-6.772559],[16.919434,-6.933984],[16.96582,-7.062109],[16.952051,-7.157031],[16.984766,-7.257422],[17.06377,-7.363086],[17.121582,-7.419043],[17.155078,-7.461328],[17.24502,-7.62334],[17.411328,-7.881934],[17.536035,-8.075879],[17.57959,-8.099023],[17.643359,-8.090723],[17.778809,-8.071387],[17.913086,-8.067676],[18.008789,-8.107617],[18.047168,-8.100781],[18.191504,-8.023828],[18.334863,-8.000293],[18.484668,-7.968555],[18.562695,-7.935938],[18.653418,-7.936035],[18.89834,-7.998145],[18.944434,-8.001465],[19.142676,-8.001465],[19.34082,-7.966602],[19.369922,-7.706543],[19.37168,-7.655078],[19.419336,-7.557324],[19.479883,-7.472168],[19.487402,-7.390723],[19.483789,-7.279492],[19.527637,-7.144434],[19.660352,-7.037109],[19.875195,-6.986328],[19.997461,-6.976465],[20.190039,-6.946289],[20.482227,-6.91582],[20.590039,-6.919922],[20.59873,-6.935156],[20.536914,-7.121777],[20.53584,-7.182813],[20.558398,-7.244434],[20.607813,-7.277734],[20.910938,-7.281445],[21.190332,-7.284961],[21.51084,-7.29668],[21.751074,-7.305469],[21.781641,-7.314648],[21.806055,-7.328613],[21.841602,-7.420996],[21.833594,-7.60166],[21.780078,-7.86543],[21.800879,-8.111914],[21.895898,-8.341113],[21.905371,-8.693359],[21.871875,-8.903516],[21.829492,-9.168457],[21.813184,-9.46875],[21.856641,-9.594238],[21.948633,-9.725586],[22.08916,-9.862793],[22.197754,-10.040625],[22.274512,-10.259082],[22.302441,-10.39668],[22.281641,-10.45332],[22.283203,-10.551563],[22.307031,-10.691309],[22.280469,-10.783984],[22.203516,-10.829492],[22.17793,-10.892285],[22.216699,-11.012695],[22.226172,-11.121973],[22.256641,-11.163672],[22.278809,-11.194141],[22.314941,-11.198633],[22.392969,-11.159473],[22.486133,-11.086719],[22.561035,-11.055859],[22.666504,-11.059766],[22.814746,-11.080273],[23.07627,-11.087891],[23.156738,-11.074805],[23.400195,-10.976465],[23.463965,-10.969336],[23.559961,-10.978613],[23.696387,-11.007617],[23.833887,-11.013672],[23.901172,-10.983203],[23.907324,-10.943457],[23.928711,-10.891504],[23.966504,-10.871777]]]]}}]}
